0 THORAD AGENA D DEB
1 04158U 69082AA  13282.51808050  .00000202  00000-0  14176-3 0  1051
2 04158 070.0037 223.0692 0047800 262.3176 212.2488 14.10836995261267
0 THORAD AGENA D DEB
1 04158U 69082AA  13283.77920259  .00000214  00000-0  14843-3 0  1061
2 04158 070.0038 220.3062 0047777 260.7615 137.3775 14.10837426261448
0 THORAD AGENA D DEB
1 04158U 69082AA  13286.20252362  .00000305  00000-0  19907-3 0  1084
2 04158 070.0042 214.9968 0047769 257.7947 205.1992 14.10837928261781
0 THORAD AGENA D DEB
1 04158U 69082AA  13287.48039620  .00000366  00000-0  23267-3 0  1097
2 04158 070.0043 212.1971 0047749 256.2340 215.3937 14.10838422261967
0 THORAD AGENA D DEB
1 04158U 69082AA  13288.96274171  .00000430  00000-0  26776-3 0  1105
2 04158 070.0044 208.9495 0047762 254.4172 184.0973 14.10839736262175
0 THORAD AGENA D DEB
1 04158U 69082AA  13290.16619682  .00000445  00000-0  27621-3 0  1117
2 04158 070.0044 206.3131 0047755 252.9428 176.3444 14.10840586262344
0 THORAD AGENA D DEB
1 04158U 69082AA  13291.45040663  .00000454  00000-0  28096-3 0  1125
2 04158 070.0043 203.4997 0047728 251.3612 218.7499 14.10841807262527
0 THORAD AGENA D DEB
1 04158U 69082AA  13292.85948027  .00000464  00000-0  28682-3 0  1134
2 04158 070.0042 200.4127 0047718 249.5859 175.3755 14.10843259262727
0 THORAD AGENA D DEB
1 04158U 69082AA  13294.14321833  .00000449  00000-0  27831-3 0  1147
2 04158 070.0042 197.6004 0047685 247.9311 215.4707 14.10844765262902
0 THORAD AGENA D DEB
1 04158U 69082AA  13295.14870328  .00000447  00000-0  27722-3 0  1154
2 04158 070.0043 195.3976 0047648 246.6979 282.2618 14.10845864263041
0 THORAD AGENA D DEB
1 04158U 69082AA  13296.19392632  .00000433  00000-0  26947-3 0  1161
2 04158 070.0043 193.1076 0047631 245.4035 190.8966 14.10847253263190
